[{"OBJECT_NAME":"STARLINK-5573","OBJECT_ID":"2023-028K","EPOCH":"2026-03-09T21:58:40.857024","MEAN_MOTION":14.98328699,"ECCENTRICITY":0.0002829,"INCLINATION":69.9992,"RA_OF_ASC_NODE":243.8991,"ARG_OF_PERICENTER":267.9298,"MEAN_ANOMALY":92.1537,"EPHEMERIS_TYPE":0,"CLASSIFICATION_TYPE":"U","NORAD_CAT_ID":55750,"ELEMENT_SET_NO":999,"REV_AT_EPOCH":16607,"BSTAR":-2.3316039e-5,"MEAN_MOTION_DOT":-3.71e-6,"MEAN_MOTION_DDOT":0},{"OBJECT_NAME":"CZ-2D R\/B","OBJECT_ID":"2018-048C","EPOCH":"2026-03-09T15:04:20.679168","MEAN_MOTION":14.94740995,"ECCENTRICITY":0.001273,"INCLINATION":97.5865,"RA_OF_ASC_NODE":101.6245,"ARG_OF_PERICENTER":129.2773,"MEAN_ANOMALY":230.9579,"EPHEMERIS_TYPE":0,"CLASSIFICATION_TYPE":"U","NORAD_CAT_ID":43486,"ELEMENT_SET_NO":999,"REV_AT_EPOCH":42028,"BSTAR":0.00054527,"MEAN_MOTION_DOT":5.879e-5,"MEAN_MOTION_DDOT":0}]
